# From MPEC 2022-S20
C/1995 O1 (Hale-Bopp),e,89.4702,282.2948,130.2228,177.4294,0.0004170,0.99498009,0.0000,03/30.7134/1997,2000,g -2.0,4.0
# From NK 1615
P/1996 R2 (Lagerkvist),e,2.5998,40.0580,333.4289,3.773844,0.1344399,0.31453438,249.0463,03/12.0/2024,2000,g 11.5,4.0
# From MPC 75703
P/1998 VS24 (LINEAR),e,5.0282,159.0670,244.7318,4.522788,0.1024695,0.24364289,229.4629,03/12.0/2024,2000,g 13.0,2.0
# From NK 731
P/1999 RO28 (LONEOS),e,7.5669,137.8698,231.3243,3.425981,0.1554271,0.67239892,267.1826,03/12.0/2024,2000,g 20.0,2.0
# From MPC 75704
P/1999 XN120 (Catalina),e,5.0296,285.2598,161.6810,4.179193,0.1153627,0.21082913,284.9689,03/12.0/2024,2000,g 13.5,2.0
# From NK 744
P/2000 R2 (LINEAR),e,11.6818,160.2905,176.5910,3.468432,0.1525824,0.53090383,263.8444,03/12.0/2024,2000,g 18.0,4.0
# From MPC 43019
P/2001 H5 (NEAT),e,8.3688,328.6414,224.6600,6.095538,0.0654917,0.59841700,201.5698,03/12.0/2024,2000,g 12.0,4.0
# From MPEC 2023-UR6
P/2002 EJ57 (LINEAR),e,4.9831,330.2615,167.2553,6.458055,0.0600553,0.59314966,125.7452,03/12.0/2024,2000,g 12.5,4.0
# From MPC 75007
C/2002 VQ94 (LINEAR),e,70.7079,35.1591,99.8493,185.1520,0.0003912,0.96340951,2.5858,03/12.0/2024,2000,g  9.5,2.0
# From MPC 50354
P/2003 F2 (NEAT),e,11.6408,358.9492,192.3226,6.502901,0.0594352,0.54155813,93.9793,03/12.0/2024,2000,g 16.5,2.0
# From MPC 50139
P/2003 QX29 (NEAT),e,11.3980,264.5351,37.6708,8.006244,0.0435072,0.47183568,337.6764,03/12.0/2024,2000,g  8.5,4.0
# From MPC105235
P/2003 T12 (SOHO),e,11.0249,174.5791,219.7823,2.584340,0.2372355,0.77027123,333.0130,03/12.0/2024,2000,g 17.0,4.0
# From MPEC 2022-YN2
P/2004 FY140 (LINEAR),e,2.1620,327.2702,254.1154,4.970133,0.0889512,0.19204594,264.2022,03/12.0/2024,2000,g 12.5,2.0
# From MPC 53304
P/2004 R3 (LINEAR-NEAT),e,12.7919,305.1278,37.5360,4.753752,0.0950932,0.25451403,86.1516,03/12.0/2024,2000,g 14.5,4.0
# From MPC 75705
P/2004 V5 (LINEAR-Hill),e,19.3484,47.7386,87.3941,8.013840,0.0434453,0.44680318,305.9068,03/12.0/2024,2000,g  8.0,4.0
# From MPC 75705
P/2004 V5-B (LINEAR-Hill),e,19.3485,47.7389,87.3972,8.014233,0.0434421,0.44682704,305.8689,03/12.0/2024,2000,g  8.0,4.0
# From MPC 54164
P/2005 E1 (Tubbiolo),e,4.2618,335.5243,193.8705,7.061365,0.0525256,0.37650549,8.7309,03/12.0/2024,2000,g 10.0,4.0
# From MPC 79019
P/2005 J1 (McNaught),e,31.7397,268.7990,338.9149,3.573554,0.1458994,0.56904667,288.9767,03/12.0/2024,2000,g 16.5,4.0
# From MPC 74246
P/2005 L1 (McNaught),e,7.6689,135.9746,152.8867,4.008436,0.1228123,0.22364322,104.0195,03/12.0/2024,2000,g  9.5,4.0
# From MPC 75706
P/2005 S2 (Skiff),e,3.1370,161.3568,229.7043,7.993491,0.0436113,0.19888266,282.5183,03/12.0/2024,2000,g  7.5,4.0
# From MPC 75706
P/2005 SB216 (LONEOS),e,24.1102,1.1275,83.2164,7.153267,0.0515166,0.46555682,325.2966,03/12.0/2024,2000,g 12.0,2.0
# From MPC 73461
P/2005 T3 (Read),e,6.2276,27.6544,6.8163,7.585865,0.0471733,0.17542394,318.1578,03/12.0/2024,2000,g  9.0,4.0
# From MPC 73461
P/2005 T4 (SWAN),e,160.2849,25.9405,41.8751,9.354784,0.0344472,0.93012483,231.4940,03/12.0/2024,2000,g 15.0,4.0
# From MPC 75706
P/2005 T5 (Broughton),e,21.3835,57.0687,304.7302,7.268908,0.0502922,0.55233474,336.8807,03/12.0/2024,2000,g 11.0,4.0
# From MPEC 2024-DD5
P/2005 XR132 (Spacewatch),e,14.4756,265.3983,240.7695,3.758665,0.1352551,0.43232225,162.4746,03/12.0/2024,2000,g 16.0,4.0
# From MPC 75707
P/2006 HR30 (Siding Spring),e,31.9180,309.8192,117.4275,7.803191,0.0452164,0.84359729,284.4042,03/12.0/2024,2000,g 11.0,4.0
# From MPC 75707
P/2007 C2 (Catalina),e,8.6122,275.2540,180.1583,7.008762,0.0531180,0.47309292,320.6988,03/12.0/2024,2000,g 10.0,4.0
# From MPC 84315
C/2007 D1 (LINEAR),e,41.5051,171.1576,339.6968,1150,0.0000253,0.99238923,0.0000,06/09.7601/2007,2000,g  3.5,4.0
# From MPC 82314
P/2007 K2 (Gibbs),e,7.6198,188.5657,347.2767,7.301629,0.0499545,0.68446255,309.0430,03/12.0/2024,2000,g 14.0,4.0
# From MPC 60925
P/2007 Q2 (Gilmore),e,10.1995,172.1986,162.8733,5.660734,0.0731804,0.66942169,87.9340,03/12.0/2024,2000,g 16.0,4.0
# From MPC 73462
P/2007 S1 (Zhao),e,5.9648,141.3322,245.2156,3.817109,0.1321607,0.33841310,69.0264,03/12.0/2024,2000,g 13.0,4.0
# From MPC 61994
P/2007 T2 (Kowalski),e,9.7507,3.3857,359.6723,3.044086,0.1855747,0.78565200,21.4124,03/12.0/2024,2000,g 18.5,4.0
# From MPC 64114
P/2008 O3 (Boattini),e,32.3292,47.6082,341.1808,8.210443,0.0418942,0.69659305,241.0093,03/12.0/2024,2000,g 13.0,4.0
# From MPC 75710
P/2008 Y3 (McNaught),e,38.7786,262.8366,238.0528,8.043764,0.0432031,0.44706789,240.4599,03/12.0/2024,2000,g  8.5,4.0
# From MPC 75710
P/2009 B1 (Boattini),e,22.2534,297.1048,128.9405,6.732697,0.0564184,0.63604882,312.5915,03/12.0/2024,2000,g 13.0,4.0
# From MPC 66466
C/2009 G1 (STEREO),e,108.2866,120.7478,175.5443,468.8278,0.0000971,0.99756305,0.0000,04/18.0837/2009,2000,g  9.0,4.0
# From MPC 75710
P/2009 O3 (Hill),e,16.2730,183.7119,154.4739,7.767962,0.0455243,0.68699848,245.7780,03/12.0/2024,2000,g 12.5,4.0
# From MPC 68902
P/2009 Q5 (McNaught),e,40.9768,160.2666,209.1641,7.426020,0.0487046,0.60976688,257.4262,03/12.0/2024,2000,g 10.0,4.0
# From MPC112389
P/2009 T2 (La Sagra),e,27.6150,216.3566,215.9208,7.712857,0.0460131,0.76727219,238.2298,03/12.0/2024,2000,g 14.0,4.0
# From MPC105235
P/2009 WX51 (Catalina),e,9.5937,31.5454,118.2628,3.082637,0.1821044,0.73939555,220.8214,03/12.0/2024,2000,g 19.0,2.0
# From MPC 74247
P/2009 Y2 (Kowalski),e,29.9720,262.0828,172.1663,6.545025,0.0588623,0.63736196,301.4516,03/12.0/2024,2000,g 13.0,4.0
# From MPC 75711
P/2010 A3 (Hill),e,14.8189,63.6451,42.2348,6.094941,0.0655013,0.73410954,336.1252,03/12.0/2024,2000,g 14.0,4.0
# From MPC 75008
P/2010 C1 (Scotti),e,9.1174,141.6358,3.1246,7.117764,0.0519026,0.26245591,273.8592,03/12.0/2024,2000,g  9.5,4.0
# From MPC 75008
P/2010 D2 (WISE),e,57.1190,319.8728,119.9407,6.721499,0.0565594,0.45174013,291.3295,03/12.0/2024,2000,g 16.0,4.0
# From MPC 75009
P/2010 E2 (Jarnac),e,15.3991,177.7997,8.2570,8.638768,0.0388174,0.71989081,198.2920,03/12.0/2024,2000,g 14.0,4.0
# From MPC 72851
P/2010 H2 (Vales),e,14.2796,64.1876,128.0532,3.831882,0.1313971,0.19723865,312.3420,03/12.0/2024,2000,g  6.0,4.0
# From MPC 70361
P/2010 H3 (SOHO),e,23.1442,77.1780,26.0658,3.035965,0.1863198,0.98550772,0.0000,05/25.1393/2026,2000,g 20.0,2.0
# From MPC 73463
P/2010 H4 (Scotti),e,2.3180,44.6205,179.1284,6.609664,0.0580009,0.26614761,292.5336,03/12.0/2024,2000,g 10.5,4.0
# From MPC 74637
P/2010 H5 (Scotti),e,14.0573,24.5899,174.5770,7.175520,0.0512772,0.15328784,262.7016,03/12.0/2024,2000,g 13.0,2.0
# From MPC 98558
P/2010 J3 (McMillan),e,13.2396,106.5180,157.4970,8.985561,0.0365920,0.72447349,181.3641,03/12.0/2024,2000,g 11.0,4.0
# From MPC 84315
P/2010 JC81 (WISE),e,38.8150,30.8768,12.4600,8.103309,0.0427278,0.77830211,200.7517,03/12.0/2024,2000,g  9.0,4.0
# From MPC 74248
P/2010 T2 (PANSTARRS),e,7.8934,57.9552,351.6220,5.645590,0.0734751,0.33056039,0.5185,03/12.0/2024,2000,g 11.5,4.0
# From MPC 82316
P/2010 U1 (Boattini),e,8.2258,280.8047,86.4086,6.493100,0.0595698,0.24899701,305.7652,03/12.0/2024,2000,g  9.5,4.0
# From MPEC 2023-J95
C/2010 U3 (Boattini),e,55.5662,42.9876,88.0453,4742,0.0000030,0.99822064,0.0000,02/26.3325/2019,2000,g  1.0,4.0
# From MPC 79021
P/2010 UH55 (Spacewatch),e,8.0370,232.8872,225.1869,6.652501,0.0574416,0.56442950,271.3435,03/12.0/2024,2000,g 11.0,4.0
# From MPC 75009
P/2010 WK (LINEAR),e,11.4023,11.3437,40.9962,5.763574,0.0712305,0.69077909,350.6471,03/12.0/2024,2000,g 14.5,2.0
# From MPC 84021
P/2011 C2 (Gibbs),e,10.8890,11.9537,160.3408,7.412523,0.0488377,0.26992914,218.8168,03/12.0/2024,2000,g  9.0,4.0
# From MPC 79866
P/2011 FR143 (Lemmon),e,15.9707,190.8696,349.8006,6.871538,0.0547171,0.45167194,262.0265,03/12.0/2024,2000,g 14.0,2.0
# From MPC 82317
P/2011 JB15 (Spacewatch-Boattini),e,19.1324,153.5673,110.9147,7.374758,0.0492133,0.31479154,218.9995,03/12.0/2024,2000,g  9.0,4.0
# From MPC 87913
P/2011 N1 (ASH),e,35.7826,77.6280,330.4239,6.239036,0.0632452,0.54555256,272.1871,03/12.0/2024,2000,g 11.5,4.0
# From MPEC 2022-ED3
P/2011 P1 (McNaught),e,5.6565,4.2862,349.1863,7.458486,0.0483869,0.32718406,240.3136,03/12.0/2024,2000,g  9.0,4.0
# From MPEC 2022-HC2
P/2011 S1 (Gibbs),e,2.6890,218.8963,192.6882,8.587999,0.0391621,0.20169496,136.6951,03/12.0/2024,2000,g  8.0,4.0
# From MPC 79022
P/2011 UA134 (Spacewatch-PANSTARRS),e,10.4406,40.3996,32.4213,5.610701,0.0741615,0.63012897,334.6514,03/12.0/2024,2000,g 17.5,4.0
# From MPEC 2023-UR6
P/2011 V1 (Boattini),e,7.3842,46.4831,269.6740,3.855425,0.1301954,0.54865644,259.4316,03/12.0/2024,2000,g 15.5,4.0
# From MPC 82718
P/2011 W1 (PANSTARRS),e,3.7172,161.8283,282.8683,4.670946,0.0976330,0.28853518,74.4253,03/12.0/2024,2000,g 11.5,4.0
# From MPC 79342
P/2011 Y2 (Boattini),e,6.3860,309.3345,131.9986,6.233873,0.0633238,0.71101093,277.7301,03/12.0/2024,2000,g 15.0,4.0
# From MPEC 2022-K19
P/2012 B1 (PANSTARRS),e,7.6091,36.2158,162.1284,6.535228,0.0589947,0.40958423,230.6778,03/12.0/2024,2000,g  9.0,4.0
# From MPC 78590
P/2012 C3 (PANSTARRS),e,9.0920,135.3677,344.9542,9.748681,0.0323806,0.63011148,359.9758,10/06.0/2011,2000,g 13.0,4.0
# From MPC 84931
P/2012 F2 (PANSTARRS),e,14.6986,226.9585,33.2474,6.341991,0.0617114,0.54023883,246.7653,03/12.0/2024,2000,g 12.0,4.0
# From MPEC 2022-ED3
P/2012 G1 (PANSTARRS),e,12.1685,283.2535,266.0734,4.164288,0.1159826,0.32904824,146.1111,03/12.0/2024,2000,g 15.0,4.0
# From MPC 80898
P/2012 K3 (Gibbs),e,13.1849,125.8162,172.2072,3.630415,0.1424852,0.42187610,238.0339,03/12.0/2024,2000,g 15.0,4.0
# From MPC 88326
P/2012 NJ (La Sagra),e,84.4573,315.6406,338.4070,8.467711,0.0399995,0.84643876,171.5219,03/12.0/2024,2000,g 14.5,4.0
# From MPC 81470
P/2012 O1 (McNaught),e,7.4277,91.9495,238.3028,3.542429,0.1478265,0.59380078,271.4485,03/12.0/2024,2000,g 17.5,4.0
# From MPC 80899
P/2012 O2 (McNaught),e,24.4612,120.6758,183.4561,3.627921,0.1426321,0.53139801,252.9520,03/12.0/2024,2000,g 17.0,4.0
# From MPC 82320
P/2012 T2 (PANSTARRS),e,12.5704,73.8817,310.9329,5.722501,0.0719988,0.16249194,284.9367,03/12.0/2024,2000,g 10.0,4.0
# From MPC 80900
